[{"OBJECT_NAME":"STARLINK-30364","OBJECT_ID":"2023-131K","EPOCH":"2026-03-09T22:00:01.999584","MEAN_MOTION":15.13370424,"ECCENTRICITY":0.00014253,"INCLINATION":42.9989,"RA_OF_ASC_NODE":170.2642,"ARG_OF_PERICENTER":274.0474,"MEAN_ANOMALY":17.4063,"EPHEMERIS_TYPE":0,"CLASSIFICATION_TYPE":"U","NORAD_CAT_ID":57741,"ELEMENT_SET_NO":999,"REV_AT_EPOCH":557,"BSTAR":0.070301336,"MEAN_MOTION_DOT":0.01392179,"MEAN_MOTION_DDOT":0},{"OBJECT_NAME":"COSMOS 375 DEB","OBJECT_ID":"1970-091S","EPOCH":"2026-03-09T22:51:46.743840","MEAN_MOTION":13.67879692,"ECCENTRICITY":0.06958217,"INCLINATION":62.529,"RA_OF_ASC_NODE":0.4446,"ARG_OF_PERICENTER":155.8551,"MEAN_ANOMALY":207.6827,"EPHEMERIS_TYPE":0,"CLASSIFICATION_TYPE":"U","NORAD_CAT_ID":4665,"ELEMENT_SET_NO":999,"REV_AT_EPOCH":64170,"BSTAR":0.00074210766,"MEAN_MOTION_DOT":3.514e-5,"MEAN_MOTION_DDOT":0}]
